[
    {
        "CCSDS_OMM_VERS": "3.0",
        "COMMENT": "GENERATED VIA SPACE-TRACK.ORG API",
        "CREATION_DATE": "2025-05-03T14:16:22",
        "ORIGINATOR": "18 SPCS",
        "OBJECT_NAME": "QZS-4",
        "OBJECT_ID": "2017-062A",
        "CENTER_NAME": "EARTH",
        "REF_FRAME": "TEME",
        "TIME_SYSTEM": "UTC",
        "MEAN_ELEMENT_THEORY": "SGP4",
        "EPOCH": "2025-05-03T11:33:57.417120",
        "MEAN_MOTION": "1.00264477",
        "ECCENTRICITY": "0.07467970",
        "INCLINATION": "40.3503",
        "RA_OF_ASC_NODE": "348.7105",
        "ARG_OF_PERICENTER": "270.8320",
        "MEAN_ANOMALY": "274.8842",
        "EPHEMERIS_TYPE": "0",
        "CLASSIFICATION_TYPE": "U",
        "NORAD_CAT_ID": "42965",
        "ELEMENT_SET_NO": "999",
        "REV_AT_EPOCH": "2769",
        "BSTAR": "0.00000000000000",
        "MEAN_MOTION_DOT": "-0.00000350",
        "MEAN_MOTION_DDOT": "0.0000000000000",
        "SEMIMAJOR_AXIS": "42166.781",
        "PERIOD": "1436.202",
        "APOAPSIS": "38937.648",
        "PERIAPSIS": "32639.643",
        "OBJECT_TYPE": "PAYLOAD",
        "RCS_SIZE": "LARGE",
        "COUNTRY_CODE": "JPN",
        "LAUNCH_DATE": "2017-10-09",
        "SITE": "TNSTA",
        "DECAY_DATE": null,
        "FILE": "4717727",
        "GP_ID": "286739930",
        "TLE_LINE0": "0 QZS-4",
        "TLE_LINE1": "1 42965U 17062A   25123.48191455 -.00000350  00000-0  00000+0 0  9990",
        "TLE_LINE2": "2 42965  40.3503 348.7105 0746797 270.8320 274.8842  1.00264477 27693"
    }
]